2026-106A               
1 69097U 26106A   26165.16690734  .00007095  00000+0  42554-3 0  9995
2 69097  97.5102 247.3053 0014699 171.3372 188.8115 15.11163755  4522
2026-106B               
1 69098U 26106B   26165.18164046  .00004893  00000+0  30713-3 0  9997
2 69098  97.5081 247.2794 0015110 167.3372 192.8239 15.09656222  4529
2026-106C               
1 69099U 26106C   26165.16610861  .00006888  00000+0  41280-3 0  9994
2 69099  97.5106 247.3077 0014479 172.0485 188.0977 15.11205655  4527
2026-106D               
1 69100U 26106D   26165.16373291  .00001549  00000+0  95684-4 0  9997
2 69100  97.5075 247.3020 0014180 174.4038 185.7353 15.11267383  4520
2026-106E               
1 69101U 26106E   26165.15846020  .00007961  00000+0  47267-3 0  9999
2 69101  97.5085 247.3093 0016644 175.3300 184.8088 15.11467422  4522
DRAGON CRS-34           
1 69103U 26107A   26165.09325830  .00008623  00000+0  16324-3 0  9992
2 69103  51.6335 315.4063 0004936 183.6835 176.4118 15.49219019571385
QIANFAN-145             
1 69104U 26108A   26164.82363916 -.02073940  00000+0 -13825+1 0  9999
2 69104  89.0101  22.5972 0014257 132.4130 227.8260 14.05311278  3867
QIANFAN-146             
1 69105U 26108B   26164.86735897 -.01695440  00000+0 -10278+1 0  9998
2 69105  89.0108  22.5681 0018615 104.6869 255.6381 14.10364472  3889
QIANFAN-147             
1 69106U 26108C   26164.87423806 -.01960672  00000+0 -12706+1 0  9994
2 69106  89.0102  22.5866 0015221 116.8314 243.4427 14.06641037  3874
QIANFAN-148             
1 69107U 26108D   26164.86857407 -.01910359  00000+0 -12659+1 0  9996
2 69107  89.0102  22.5860 0018573 134.0513 226.2203 14.05274529  3873
QIANFAN-149             
1 69108U 26108E   26165.00926997  .00000067  00000+0  30668-4 0  9992
2 69108  89.0113  22.5707 0016553 122.2975 237.9815 14.09076243  3890
QIANFAN-150             
1 69109U 26108F   26164.85287997 -.02078177  00000+0 -13293+1 0  9997
2 69109  89.0107  22.5843 0016098 112.1765 248.1129 14.07598512  3870
QIANFAN-151             
1 69110U 26108G   26164.84741773 -.01930369  00000+0 -12621+1 0  9998
2 69110  89.0114  22.5830 0016149 128.9940 231.2683 14.06080708  3873
QIANFAN-152             
1 69111U 26108H   26164.83687259 -.01893806  00000+0 -12009+1 0  9990
2 69111  89.0106  22.5818 0017010 119.1577 241.1311 14.07695038  3874
QIANFAN-153             
1 69112U 26108J   26164.83202826 -.01813846  00000+0 -11764+1 0  9997
2 69112  89.0102  22.5801 0016263 122.6383 237.6371 14.06943309  3878
QIANFAN-154             
1 69113U 26108K   26164.82503329 -.02090587  00000+0 -13179+1 0  9991
2 69113  89.0112  22.5808 0020004 110.5588 249.7744 14.08392809  3871
QIANFAN-155             
1 69114U 26108L   26164.83018747 -.02073335  00000+0 -13260+1 0  9991
2 69114  89.0103  22.5813 0019322 116.5625 243.7541 14.07567838  3871
QIANFAN-156             
1 69115U 26108M   26163.96413537 -.01951408  00000+0 -11885+1 0  9997
2 69115  89.0116  22.6746 0021312 111.6361 248.7096 14.09991528  3753
QIANFAN-157             
1 69116U 26108N   26164.85246926 -.01902602  00000+0 -11421+1 0  9991
2 69116  89.0107  22.5657 0021894 117.5197 242.8216 14.10677837  3880
QIANFAN-158             
1 69117U 26108P   26164.87418834 -.01841769  00000+0 -11239+1 0  9996
2 69117  89.0110  22.5691 0018921 110.1512 250.1710 14.09686939  3882
QIANFAN-159             
1 69118U 26108Q   26164.86726216 -.02009509  00000+0 -12085+1 0  9991
2 69118  89.0104  22.5675 0016714 100.0534 260.2538 14.10847637  3884
QIANFAN-160             
1 69119U 26108R   26164.86371994 -.01916835  00000+0 -11751+1 0  9998
2 69119  89.0109  22.5680 0017565 106.3316 253.9802 14.09596494  3881
QIANFAN-161             
1 69120U 26108S   26164.92622339  .00000083  00000+0  34765-4 0  9999
2 69120  89.0115  22.5587 0015540 122.9513 237.3171 14.16181151  3894
QIANFAN-162             
1 69121U 26108T   26164.85099930 -.01773185  00000+0 -10533+1 0  9993
2 69121  89.0108  22.5660 0021484 121.5380 238.7908 14.11632797  3884
SMILE                   
1 69123U 26109A   26144.65318427 -.00001976  00000+0 -42379-3 0  9994
2 69123  70.0007 229.2745 0009123 259.5159 100.4951 14.57062785   802
STARLINK-37726          
1 69124U 26110A   26165.19736201  .00042255  00000+0  77377-3 0  9992
2 69124  97.2836   1.3877 0001651  95.4447 264.6992 15.49213313  5130
STARLINK-37722          
1 69125U 26110B   26165.06476569  .00055629  00000+0  10165-2 0  9997
2 69125  97.2829   1.4149 0001409  84.5568 275.5844 15.49211291  5129
STARLINK-37715          
1 69126U 26110C   26165.16668980 -.00030586  00000+0 -94895-3 0  9999
2 69126  97.2845   1.5718 0001871  94.9777 237.0126 15.33441862  5163
